STARLINK-4146           
1 53294C 22086BE  23002.12965278  .00017757  00000-0  11136-2 0    24
2 53294  53.2185 353.0479 0002288  35.7482 266.6118 15.08817117    19
STARLINK-4522           
1 53388C 22097A   23002.10604167  .00024468  00000-0  15342-2 0    25
2 53388  53.2161 303.1793 0002888  20.5316 133.6677 15.08813063    15
STARLINK-4523           
1 53389C 22097B   23002.10951389 -.00001478  00000-0 -92604-4 0    23
2 53389  53.2154 303.1582 0002196  29.6769 183.3298 15.08859592    16
STARLINK-4517           
1 53390C 22097C   23002.11159722  .00024528  00000-0  15381-2 0    21
2 53390  53.2159 303.1528 0002556  32.4341 171.9870 15.08811588    13
STARLINK-4521           
1 53391C 22097D   23002.10604167  .00022533  00000-0  14130-2 0    24
2 53391  53.2163 303.1780 0002741  26.1452 188.0821 15.08812392    17
STARLINK-4535           
1 53392C 22097E   23002.11298611  .00025077  00000-0  15729-2 0    20
2 53392  53.2164 303.1433 0002665  23.4142 268.5483 15.08802944    15
STARLINK-4530           
1 53393C 22097F   23002.11298611  .00004033  00000-0  25289-3 0    23
2 53393  53.2159 303.1404 0003071  20.8369 251.1276 15.08836305    18
STARLINK-4544           
1 53394C 22097G   23002.11298611  .00002292  00000-0  14368-3 0    25
2 53394  53.2174 292.9040 0002177  29.9579  91.9263 15.08846393    10
STARLINK-4534           
1 53395C 22097H   23002.10395833 -.00005060  00000-0 -31730-3 0    29
2 53395  53.2142 303.1817 0001834  54.2232 208.6582 15.08840060    15
STARLINK-4524           
1 53396C 22097J   23002.11368056  .00001243  00000-0  77916-4 0    22
2 53396  53.2170 303.1342 0002847  24.1026  11.6486 15.08840526    14
STARLINK-4515           
1 53397C 22097K   23002.11159722 -.00001050  00000-0 -65856-4 0    29
2 53397  53.2168 303.1516 0002386  28.3514 296.0898 15.08839820    12
STARLINK-4512           
1 53398C 22097L   23002.09770833 -.00015247  00000-0 -95612-3 0    24
2 53398  53.2173 303.1945 0001892  50.1065 298.8065 15.08852258    16
STARLINK-4528           
1 53399C 22097M   23002.11229167  .00001925  00000-0  12073-3 0    23
2 53399  53.2170 303.1424 0002060  40.6626 327.5052 15.08838676    15
STARLINK-4520           
1 53400C 22097N   23002.11368056 -.00002634  00000-0 -16518-3 0    25
2 53400  53.2184 303.1255 0002565  28.9070 106.8121 15.08837718    18
STARLINK-4525           
1 53401C 22097P   23002.10881944  .00002582  00000-0  16189-3 0    25
2 53401  53.2171 303.1564 0002544  26.9476   2.4025 15.08837701    19
STARLINK-4499           
1 53402C 22097Q   23002.10256944 -.00000094  00000-0 -58963-5 0    28
2 53402  53.2168 303.1691 0001320  86.9658   8.3709 15.08835669    11
STARLINK-4507           
1 53403C 22097R   23002.11298611  .00020253  00000-0  12697-2 0    25
2 53403  53.2172 303.1240 0002412  36.1003  50.6414 15.08825815    16
STARLINK-4509           
1 53404C 22097S   23002.11020833 -.00000437  00000-0 -27378-4 0    23
2 53404  53.2146 293.1365 0002245  32.5453 159.2845 15.08842856    15
STARLINK-4510           
1 53405C 22097T   23002.11368056 -.00004915  00000-0 -30823-3 0    29
2 53405  53.2157 303.1317 0001732  53.1006 122.6146 15.08842822    11
STARLINK-4533           
1 53406C 22097U   23002.11298611  .00000320  00000-0  20046-4 0    20
2 53406  53.2146 293.1222 0002315  33.7157 273.2397 15.08844907    19
STARLINK-4537           
1 53407C 22097V   23002.11229167  .00001344  00000-0  84285-4 0    23
2 53407  53.2173 283.3658 0001618  52.8574 205.2011 15.08833415    14
STARLINK-4491           
1 53408C 22097W   23002.11159722  .00003096  00000-0  19413-3 0    29
2 53408  53.2159 293.1334 0002111  37.9688 201.4459 15.08839879    12
STARLINK-4490           
1 53409C 22097X   23002.10951389  .00001626  00000-0  10197-3 0    25
2 53409  53.2167 283.3365 0001373  85.1725 177.8126 15.08835100    13
STARLINK-4492           
1 53410C 22097Y   23002.11298611  .00001219  00000-0  76410-4 0    29
2 53410  53.2157 293.1270 0002249  35.6618 231.2754 15.08846367    11
STARLINK-4497           
1 53411C 22097Z   23002.10951389  .00004916  00000-0  30825-3 0    23
2 53411  53.2152 293.1379 0003015  25.2067 182.8835 15.08834177    19
STARLINK-4496           
1 53412C 22097AA  23002.11368056 -.00002068  00000-0 -12964-3 0    20
2 53412  53.2159 293.1250 0002478  30.4071 300.3214 15.08842783    10
STARLINK-4500           
1 53413C 22097AB  23002.09701389  .00050306  00000-0  31544-2 0    28
2 53413  53.2163 293.2020 0002656  40.7000 159.3699 15.08787575    12
STARLINK-4304           
1 53414C 22097AC  23002.10812500  .00027017  00000-0  16941-2 0    26
2 53414  53.2165 293.1536 0002155  36.7734 283.7807 15.08811750    15
STARLINK-4479           
1 53415C 22097AD  23002.11159722  .00012490  00000-0  78314-3 0    20
2 53415  53.2166 293.1377 0002041  36.8924 322.5343 15.08829287    17
STARLINK-4480           
1 53416C 22097AE  23002.10118056  .00016158  00000-0  10128-2 0    28
2 53416  53.2182 293.1821 0002272  46.6125 310.9122 15.08834944    10
STARLINK-4484           
1 53417C 22097AF  23002.11020833 -.00000845  00000-0 -52985-4 0    22
2 53417  53.2171 293.1363 0002764  25.1528 346.8187 15.08830946    12
STARLINK-4481           
1 53418C 22097AG  23002.10604167 -.00000038  00000-0 -24040-5 0    26
2 53418  53.2172 282.7302 0001888  43.9447 160.5959 15.08834613    18
STARLINK-4476           
1 53419C 22097AH  23002.11159722  .00002763  00000-0  17321-3 0    27
2 53419  53.2181 293.1360 0002358  33.0569   6.3632 15.08840710    17
STARLINK-4552           
1 53420C 22097AJ  23002.10812500  .00019127  00000-0  11990-2 0    25
2 53420  53.2193 293.1562 0002095  36.3965  44.1383 15.08828883    10
STARLINK-4545           
1 53421C 22097AK  23002.11298611 -.00003207  00000-0 -20101-3 0    27
2 53421  53.2184 293.1297 0002147  36.6325  30.3042 15.08854732    18
STARLINK-4546           
1 53422C 22097AL  23002.11437500  .00013682  00000-0  85769-3 0    27
2 53422  53.2170 293.1317 0002744  28.9967 125.4934 15.08833144    16
STARLINK-4539           
1 53423C 22097AM  23002.10395833  .00010545  00000-0  66108-3 0    20
2 53423  53.2176 293.1728 0002344  40.2373 357.6093 15.08836066    14
STARLINK-4532           
1 53424C 22097AN  23002.10673611  .00012701  00000-0  79636-3 0    20
2 53424  53.2155 293.1628 0001846  46.1121 106.8783 15.08830250    12
STARLINK-4531           
1 53425C 22097AP  23002.09979167  .00007014  00000-0  43973-3 0    20
2 53425  53.2162 293.1977 0001948  51.5560   3.6621 15.08837210    16
STARLINK-4558           
1 53426C 22097AQ  23002.11437500 -.00000863  00000-0 -54117-4 0    24
2 53426  53.2163 283.2734 0001467  98.9399 210.4993 15.08847746    15
STARLINK-4541           
1 53427C 22097AR  23002.11020833  .00002433  00000-0  15255-3 0    24
2 53427  53.2176 293.1510 0002937  18.7037 133.1576 15.08836345    15
STARLINK-4540           
1 53428C 22097AS  23002.10743056 -.00006119  00000-0 -38369-3 0    21
2 53428  53.2170 283.2289 0001395  74.2042 237.5556 15.08846621    18
STARLINK-4543           
1 53429C 22097AT  23002.11437500  .00001797  00000-0  11269-3 0    22
2 53429  53.2166 283.2355 0001573  57.5222 271.9270 15.08836306    14
STARLINK-4538           
1 53430C 22097AU  23002.11368056  .00017949  00000-0  11255-2 0    23
2 53430  53.2146 283.1545 0001590  57.7888 307.9401 15.08820892    12
STARLINK-4548           
1 53431C 22097AV  23002.11020833 -.00002789  00000-0 -17490-3 0    28
2 53431  53.2163 283.2630 0001554  56.1933 245.4236 15.08840481    10
STARLINK-4557           
1 53432C 22097AW  23002.09770833  .00005651  00000-0  35439-3 0    20
2 53432  53.2156 282.9690 0001335  71.4227 347.6563 15.08830877    14
STARLINK-4549           
1 53433C 22097AX  23002.11368056  .00001185  00000-0  74283-4 0    23
2 53433  53.2161 283.1220 0001574  62.4163 323.3248 15.08843874    19
STARLINK-4498           
1 53434C 22097AY  23002.10951389  .00002246  00000-0  14089-3 0    26
2 53434  53.2173 282.8752 0001796  44.5315  98.7788 15.08828877    13
STARLINK-4542           
1 53435C 22097AZ  23002.10743056  .00000890  00000-0  55822-4 0    21
2 53435  53.2157 282.9353 0001459  63.1511  43.6188 15.08836965    15
STARLINK-4527           
1 53436C 22097BA  23002.11090278  .00027014  00000-0  16944-2 0    21
2 53436  53.2174 282.8286 0001701  51.1658 119.6895 15.08801946    18
STARLINK-4526           
1 53438C 22097BC  23002.11437500  .00026850  00000-0  16836-2 0    23
2 53438  53.2176 282.7747 0001890  46.8573 162.8800 15.08812032    13
STARLINK-4519           
1 53439C 22097BD  23002.10881944  .00004719  00000-0  29589-3 0    28
2 53439  53.2162 282.7572 0001388  75.3794 124.2235 15.08835216    12
STARLINK-4415           
1 53465C 22099A   23002.10951389  .00014255  00000-0  11119-2 0    25
2 53465  97.6532 125.5541 0001224 137.6183 218.0277 15.01252035    10
STARLINK-4398           
1 53466C 22099B   23002.10881944  .00019326  00000-0  15077-2 0    26
2 53466  97.6533 125.5515 0001271 151.0086 210.8463 15.01236934    14
STARLINK-4394           
1 53467C 22099C   23002.10951389 -.00005412  00000-0 -42213-3 0    24
2 53467  97.6534 125.5514 0001369 144.8938 230.6900 15.01270562    10
STARLINK-4400           
1 53468C 22099D   23002.10951389  .00017205  00000-0  13423-2 0    26
2 53468  97.6547 125.5482 0001736 119.2203 266.3848 15.01237240    11
STARLINK-4399           
1 53469C 22099E   23002.10951389  .00020322  00000-0  15854-2 0    21
2 53469  97.6537 125.5481 0001160 133.3708 262.2137 15.01237984    19
STARLINK-4393           
1 53470C 22099F   23002.10951389  .00018950  00000-0  14780-2 0    24
2 53470  97.6538 125.5502 0001406 134.9748 259.3275 15.01247984    11
STARLINK-4316           
1 53471C 22099G   23002.10951389 -.00002774  00000-0 -21640-3 0    28
2 53471  97.6549 125.5451 0001660 109.2264 306.4105 15.01267006    10
